STARLINK-1893           
1 46786U 20074AZ  22313.79788225 -.00010910  00000+0 -71497-3 0  9996
2 46786  53.0551 349.9812 0001739  60.1518 299.9644 15.06382872113830
STARLINK-1899           
1 46787U 20074BA  22314.05592356 -.00004278  00000+0 -26858-3 0  9996
2 46787  53.0573 348.8162 0001519  52.5853 307.5274 15.06383598113554
STARLINK-1929           
1 46788U 20074BB  22314.11488272 -.00005885  00000+0 -37673-3 0  9997
2 46788  53.0539 348.5434 0001731  52.6665 307.4482 15.06377104113561
STARLINK-1930           
1 46789U 20074BC  22313.47446188 -.00000407  00000+0 -84065-5 0  9990
2 46789  53.0563  21.5947 0001901  54.5669 305.5497 15.06387555113049
STARLINK-1931           
1 46790U 20074BD  22313.96835434 -.00010186  00000+0 -66633-3 0  9996
2 46790  53.0533  19.2057 0001489  73.2722 286.8430 15.06375250113118
STARLINK-1933           
1 46791U 20074BE  22313.98310741 -.00007678  00000+0 -49739-3 0  9998
2 46791  53.0570  19.1485 0001768  48.2898 311.8242 15.06376721113114
STARLINK-1934           
1 46792U 20074BF  22314.14252195 -.00006273  00000+0 -40298-3 0  9997
2 46792  53.0564   8.4326 0001517  66.7730 293.3418 15.06366712113270
STARLINK-1941           
1 46793U 20074BG  22313.90568983 -.00013350  00000+0 -87963-3 0  9990
2 46793  53.0533  19.4994 0001349  64.4842 295.6286 15.06373728113107
STARLINK-1942           
1 46794U 20074BH  22313.71401754 -.00023924  00000+0 -15940-2 0  9995
2 46794  53.0542  20.3517 0001489  60.8067 299.3071 15.06367135113405
STARLINK-1944           
1 46796U 20074BK  22314.08724665 -.00003471  00000+0 -21433-3 0  9997
2 46796  53.0563   8.6800 0001291  80.4022 279.7113 15.06385506113270
STARLINK-1948           
1 46798U 20074BM  22313.91996009 -.00001571  00000+0 -86579-4 0  9995
2 46798  53.0558  34.4292 0001494  73.4565 286.6588 15.06400463112965
STARLINK-1777           
1 47122U 20088A   22314.13975378  .00002800  00000+0  20674-3 0  9990
2 47122  53.0553 358.4266 0001650  68.0630 292.0534 15.06404457108929
STARLINK-1785           
1 47124U 20088C   22313.86103889 -.00004793  00000+0 -30344-3 0  9991
2 47124  53.0568   4.7026 0001538  71.5000 288.6156 15.06361086108513
STARLINK-1812           
1 47126U 20088E   22313.83381671 -.00017824  00000+0 -11814-2 0  9996
2 47126  53.0557 359.7980 0001574  57.6393 302.4748 15.06376712108889
STARLINK-1837           
1 47128U 20088G   22314.05683080 -.00001032  00000+0 -50391-4 0  9991
2 47128  53.0562 338.8051 0001846  60.5250 299.5923 15.06403442109198
STARLINK-1838           
1 47129U 20088H   22314.08538624 -.00001718  00000+0 -96451-4 0  9996
2 47129  53.0550 348.6866 0002046  51.5788 308.5384 15.06399643109063
STARLINK-1839           
1 47130U 20088J   22313.95002325  .00045326  00000+0  76739-3 0  9994
2 47130  53.0575   2.3842 0002985  43.7961 316.3284 15.51122880108857
STARLINK-1843           
1 47133U 20088M   22313.81263372 -.00001255  00000+0 -65369-4 0  9996
2 47133  53.0542 349.9167 0001412  78.7422 281.3725 15.06394896108712
STARLINK-1844           
1 47134U 20088N   22314.11764428  .00019349  00000+0  13154-2 0  9993
2 47134  53.0554 358.5432 0001845  70.1177 290.0010 15.06368701108923
STARLINK-1845           
1 47135U 20088P   22313.80525593 -.00011846  00000+0 -77808-3 0  9990
2 47135  53.0555 349.9428 0001854  62.0672 298.0504 15.06380397108712
STARLINK-1846           
1 47136U 20088Q   22313.87067889  .00000152  00000+0  29093-4 0  9997
2 47136  53.0567 359.6347 0001292  53.9717 306.1392 15.06395292108883
STARLINK-1849           
1 47137U 20088R   22314.11856571 -.00004816  00000+0 -30476-3 0  9999
2 47137  53.0559 348.5377 0001697  45.6370 314.4758 15.06380708109062
STARLINK-1850           
1 47138U 20088S   22314.11629834 -.00000066  00000+0  14482-4 0  9992
2 47138  53.0539 353.8690 0001888  62.9664 297.1518 15.06395907108997
STARLINK-1852           
1 47139U 20088T   22314.10061596  .00020829  00000+0  14140-2 0  9994
2 47139  53.0547   3.8038 0001621  69.2105 290.9057 15.06376574108842
STARLINK-1854           
1 47141U 20088V   22314.09278219  .00000815  00000+0  73667-4 0  9991
2 47141  53.0547 348.6552 0001518  67.5813 292.5337 15.06384003109057
STARLINK-1856           
1 47143U 20088X   22313.87528734  .00001707  00000+0  13343-3 0  9993
2 47143  53.0557 349.6261 0001453  64.8379 295.2761 15.06402788108728
STARLINK-1857           
1 47144U 20088Y   22314.06051651 -.00005526  00000+0 -35252-3 0  9993
2 47144  53.0551 338.7886 0001769  45.3384 314.7749 15.06379487109144
STARLINK-1860           
1 47147U 20088AB  22314.08446878 -.00004786  00000+0 -30265-3 0  9993
2 47147  53.0548 358.6798 0001478  68.4019 291.7128 15.06393086108879
STARLINK-1861           
1 47148U 20088AC  22314.05959297 -.00002454  00000+0 -14590-3 0  9998
2 47148  53.0540 348.7957 0001791  58.3465 301.7699 15.06393985109009
STARLINK-1862           
1 47149U 20088AD  22313.82276233  .00002965  00000+0  21787-3 0  9996
2 47149  53.0558 359.8595 0001935  60.5785 299.5397 15.06397672109310
STARLINK-1863           
1 47150U 20088AE  22314.08171501 -.00011077  00000+0 -72649-3 0  9998
2 47150  53.0547 348.6885 0001709  51.0666 309.0475 15.06367918109011
STARLINK-1864           
1 47151U 20088AF  22314.14712713 -.00007016  00000+0 -45293-3 0  9995
2 47151  53.0549 358.4049 0001453  73.5321 286.5828 15.06373635108875
STARLINK-1866           
1 47152U 20088AG  22314.06507738 -.00002553  00000+0 -15255-3 0  9992
2 47152  53.0567 358.7502 0001616  59.4665 300.6483 15.06399475108862
STARLINK-1867           
1 47153U 20088AH  22313.86472162  .00001778  00000+0  13829-3 0  9993
2 47153  53.0558   4.9149 0001628  60.7386 299.3765 15.06387353108519
STARLINK-1868           
1 47154U 20088AJ  22313.83844396 -.00000020  00000+0  17543-4 0  9991
2 47154  53.0556 349.7790 0002029  43.2910 316.8238 15.06387854108971
STARLINK-1869           
1 47155U 20088AK  22314.13881464  .00018517  00000+0  12591-2 0  9998
2 47155  53.0537   8.4527 0001553  53.7234 306.3898 15.06389579108730
STARLINK-1871           
1 47157U 20088AM  22313.64583700 -.00002035  00000+0 -11778-3 0  9994
2 47157  53.0562   0.6564 0001387  69.3672 290.7466 15.06397229108557
STARLINK-1873           
1 47158U 20088AN  22314.13330186 -.00004767  00000+0 -30145-3 0  9991
2 47158  53.0542 348.4758 0001769  56.4625 303.6533 15.06388565109017
STARLINK-1876           
1 47161U 20088AR  22313.83476931 -.00001870  00000+0 -10673-3 0  9996
2 47161  53.0569 349.8079 0001878  53.2110 306.9051 15.06383198108721
STARLINK-1877           
1 47162U 20088AS  22314.09552714 -.00007692  00000+0 -49829-3 0  9993
2 47162  53.0558 358.6466 0001683  73.4084 286.7090 15.06379739108876
STARLINK-1878           
1 47163U 20088AT  22313.86238668 -.00001997  00000+0 -11526-3 0  9992
2 47163  53.0565   9.6848 0001521  70.6067 289.5087 15.06387027108442
STARLINK-1879           
1 47164U 20088AU  22313.85042767 -.00002598  00000+0 -15569-3 0  9994
2 47164  53.0559 339.7362 0001584  58.9720 301.1425 15.06377372108863
STARLINK-1880           
1 47165U 20088AV  22313.85594056 -.00000520  00000+0 -15993-4 0  9993
2 47165  53.0567 359.7039 0002055  50.6973 309.4198 15.06397808108830
STARLINK-1881           
1 47166U 20088AW  22313.48102976  .00073284  00000+0  97178-3 0  9998
2 47166  53.0455 225.9940 0004467  88.7896 271.3627 15.57614600110696
STARLINK-1884           
1 47167U 20088AX  22313.90756779 -.00004827  00000+0 -30560-3 0  9993
2 47167  53.0565 359.4647 0001555  49.3483 310.7641 15.06368524108894
STARLINK-1887           
1 47170U 20088BA  22314.15819702 -.00003489  00000+0 -21548-3 0  9990
2 47170  53.0562 358.3514 0001557  54.5572 305.5563 15.06389046108926
STARLINK-1888           
1 47171U 20088BB  22314.11120868 -.00004362  00000+0 -27419-3 0  9999
2 47171  53.0552 348.5595 0002061  53.3499 306.7679 15.06385533109055
STARLINK-1890           
1 47173U 20088BD  22313.50576738  .00003676  00000+0  26548-3 0  9991
2 47173  53.0574   1.2915 0001683  55.6744 304.4404 15.06405919108823
STARLINK-1891           
1 47174U 20088BE  22314.11395193 -.00005111  00000+0 -32460-3 0  9992
2 47174  53.0559 358.5441 0001702  60.4673 299.6485 15.06387041108915
STARLINK-1895           
1 47175U 20088BF  22314.11211689 -.00008359  00000+0 -54331-3 0  9998
2 47175  53.0542 338.5667 0001718  63.7766 296.3400 15.06373698108905
STARLINK-1907           
1 47177U 20088BH  22313.83105832 -.00007461  00000+0 -48268-3 0  9995
2 47177  53.0551 349.8312 0002187  46.8777 313.2395 15.06383203108729
STARLINK-1912           
1 47178U 20088BJ  22313.61265573 -.00019608  00000+0 -13016-2 0  9999
2 47178  53.0541   0.8119 0001588  58.8099 301.3045 15.06385645108544
STARLINK-1913           
1 47179U 20088BK  22313.86607522 -.00000441  00000+0 -10686-4 0  9998
2 47179  53.0541   9.6768 0001519  52.8381 307.2747 15.06379140108440
STARLINK-1927           
1 47181U 20088BM  22313.97204245  .00011534  00000+0  79215-3 0  9993
2 47181  53.0539 339.2007 0001776  66.2941 293.8234 15.06389893109138
STARLINK-2011           
1 47350U 21005B   22313.87805292 -.00000598  00000+0 -21223-4 0  9996
2 47350  53.0542 119.6189 0001365  93.6086 266.5059 15.06401750 99798
STARLINK-2017           
1 47351U 21005C   22313.64120926 -.00002087  00000+0 -12124-3 0  9990
2 47351  53.0557  80.6637 0001596 116.1943 243.9210 15.06398155100312
STARLINK-2034           
1 47352U 21005D   22313.72694517  .00001003  00000+0  86232-4 0  9999
2 47352  53.0550 120.2962 0001350 105.5419 254.5719 15.06399007 99761
STARLINK-2045           
1 47353U 21005E   22314.01397763 -.00014795  00000+0 -97749-3 0  9994
2 47353  53.0559  64.0095 0001037 106.1908 253.9195 15.06358973101240
STARLINK-2046           
1 47354U 21005F   22313.62879222 -.00001955  00000+0 -11239-3 0  9990
2 47354  53.0537  85.7184 0001352 100.4803 259.6338 15.06391778100248
STARLINK-2047           
1 47355U 21005G   22313.65045097 -.00001951  00000+0 -11218-3 0  9992
2 47355  53.0545  70.6187 0001284  96.3711 263.7424 15.06389556100455
